[{"OBJECT_NAME":"STARLINK-3172","OBJECT_ID":"2022-005AM","EPOCH":"2026-03-09T21:48:44.375616","MEAN_MOTION":15.08839804,"ECCENTRICITY":0.00014327,"INCLINATION":53.2171,"RA_OF_ASC_NODE":298.1496,"ARG_OF_PERICENTER":83.4009,"MEAN_ANOMALY":276.7147,"EPHEMERIS_TYPE":0,"CLASSIFICATION_TYPE":"U","NORAD_CAT_ID":51139,"ELEMENT_SET_NO":999,"REV_AT_EPOCH":22877,"BSTAR":7.1308665e-5,"MEAN_MOTION_DOT":8.47e-6,"MEAN_MOTION_DDOT":0},{"OBJECT_NAME":"SL-14 R\/B","OBJECT_ID":"1991-086B","EPOCH":"2026-03-09T21:12:20.037600","MEAN_MOTION":11.96623945,"ECCENTRICITY":0.15622342,"INCLINATION":82.5616,"RA_OF_ASC_NODE":35.3422,"ARG_OF_PERICENTER":86.2667,"MEAN_ANOMALY":291.495,"EPHEMERIS_TYPE":0,"CLASSIFICATION_TYPE":"U","NORAD_CAT_ID":21820,"ELEMENT_SET_NO":999,"REV_AT_EPOCH":48727,"BSTAR":0.00015922751,"MEAN_MOTION_DOT":8.43e-6,"MEAN_MOTION_DDOT":0}]
